{
  "norad_id": 67388,
  "name": "LEMUR-2-HCS-BAZUS",
  "history": [
    {
      "epoch": "2026-03-28T18:04:30.828576Z",
      "apogee_km": 601.811873601283,
      "perigee_km": 597.7530969534773,
      "latitude_deg": 5.968325822358128e-05,
      "longitude_deg": -9.492419729117598,
      "height_km": 601.0808051654915,
      "semi_major_axis_km": 6977.91948527738,
      "eccentricity": 0.00029083,
      "inclination_deg": 97.8035,
      "raan_deg": 87.8051,
      "arg_perigee_deg": 31.1883,
      "mean_anomaly_deg": 328.9507,
      "mean_motion_rev_day": 14.8940851
    }
  ]
}